CCSDS_OMM_VERS = 2.0
CREATION_DATE  = 
ORIGINATOR     = 

OBJECT_NAME    = IDEFIX & ARIANE 42P R/B
OBJECT_ID      = 2002-021B
CENTER_NAME    = EARTH
REF_FRAME      = TEME
TIME_SYSTEM    = UTC
MEAN_ELEMENT_THEORY = SGP/SGP4

EPOCH          = 2026-02-14T20:11:59.474976
MEAN_MOTION    = 14.31009211
ECCENTRICITY   = .0010639
INCLINATION    = 98.5846
RA_OF_ASC_NODE = 344.7244
ARG_OF_PERICENTER = 254.1848
MEAN_ANOMALY   = 105.8162

EPHEMERIS_TYPE = 0
CLASSIFICATION_TYPE = U
NORAD_CAT_ID   = 27422
ELEMENT_SET_NO = 999
REV_AT_EPOCH   = 24075
BSTAR          = .1136E-3
MEAN_MOTION_DOT = .255E-5
MEAN_MOTION_DDOT = 0

CCSDS_OMM_VERS = 2.0
CREATION_DATE  = 
ORIGINATOR     = 

OBJECT_NAME    = AQUA
OBJECT_ID      = 2002-022A
CENTER_NAME    = EARTH
REF_FRAME      = TEME
TIME_SYSTEM    = UTC
MEAN_ELEMENT_THEORY = SGP/SGP4

EPOCH          = 2026-02-15T04:08:23.167968
MEAN_MOTION    = 14.61919207
ECCENTRICITY   = .0001288
INCLINATION    = 98.4132
RA_OF_ASC_NODE = 13.1348
ARG_OF_PERICENTER = 48.9735
MEAN_ANOMALY   = 40.9519

EPHEMERIS_TYPE = 0
CLASSIFICATION_TYPE = U
NORAD_CAT_ID   = 27424
ELEMENT_SET_NO = 999
REV_AT_EPOCH   = 26544
BSTAR          = .20729E-3
MEAN_MOTION_DOT = .988E-5
MEAN_MOTION_DDOT = 0

CCSDS_OMM_VERS = 2.0
CREATION_DATE  = 
ORIGINATOR     = 

OBJECT_NAME    = CZ-4B R/B
OBJECT_ID      = 2002-024C
CENTER_NAME    = EARTH
REF_FRAME      = TEME
TIME_SYSTEM    = UTC
MEAN_ELEMENT_THEORY = SGP/SGP4

EPOCH          = 2026-02-15T03:32:05.997696
MEAN_MOTION    = 14.14543456
ECCENTRICITY   = .00512
INCLINATION    = 98.8891
RA_OF_ASC_NODE = 99.6620
ARG_OF_PERICENTER = 87.2866
MEAN_ANOMALY   = 294.6683

EPHEMERIS_TYPE = 0
CLASSIFICATION_TYPE = U
NORAD_CAT_ID   = 27432
ELEMENT_SET_NO = 999
REV_AT_EPOCH   = 22605
BSTAR          = .42694E-4
MEAN_MOTION_DOT = .39E-6
MEAN_MOTION_DDOT = 0

CCSDS_OMM_VERS = 2.0
CREATION_DATE  = 
ORIGINATOR     = 

OBJECT_NAME    = MIDORI II (ADEOS-II)
OBJECT_ID      = 2002-056A
CENTER_NAME    = EARTH
REF_FRAME      = TEME
TIME_SYSTEM    = UTC
MEAN_ELEMENT_THEORY = SGP/SGP4

EPOCH          = 2026-02-14T20:12:28.502784
MEAN_MOTION    = 14.29267661
ECCENTRICITY   = .0002172
INCLINATION    = 98.7728
RA_OF_ASC_NODE = 4.1678
ARG_OF_PERICENTER = 73.7944
MEAN_ANOMALY   = 286.3476

EPHEMERIS_TYPE = 0
CLASSIFICATION_TYPE = U
NORAD_CAT_ID   = 27597
ELEMENT_SET_NO = 999
REV_AT_EPOCH   = 20703
BSTAR          = .13578E-3
MEAN_MOTION_DOT = .3E-5
MEAN_MOTION_DDOT = 0

CCSDS_OMM_VERS = 2.0
CREATION_DATE  = 
ORIGINATOR     = 

OBJECT_NAME    = H-2A R/B
OBJECT_ID      = 2002-056E
CENTER_NAME    = EARTH
REF_FRAME      = TEME
TIME_SYSTEM    = UTC
MEAN_ELEMENT_THEORY = SGP/SGP4

EPOCH          = 2026-02-14T21:16:48.845280
MEAN_MOTION    = 14.33744440
ECCENTRICITY   = .0069211
INCLINATION    = 98.3160
RA_OF_ASC_NODE = 7.1263
ARG_OF_PERICENTER = 228.9703
MEAN_ANOMALY   = 191.1486

EPHEMERIS_TYPE = 0
CLASSIFICATION_TYPE = U
NORAD_CAT_ID   = 27601
ELEMENT_SET_NO = 999
REV_AT_EPOCH   = 21084
BSTAR          = .11034E-3
MEAN_MOTION_DOT = .273E-5
MEAN_MOTION_DDOT = 0

CCSDS_OMM_VERS = 2.0
CREATION_DATE  = 
ORIGINATOR     = 

OBJECT_NAME    = CZ-4B R/B
OBJECT_ID      = 2003-049C
CENTER_NAME    = EARTH
REF_FRAME      = TEME
TIME_SYSTEM    = UTC
MEAN_ELEMENT_THEORY = SGP/SGP4

EPOCH          = 2026-02-14T23:09:42.144768
MEAN_MOTION    = 14.54995218
ECCENTRICITY   = .0047172
INCLINATION    = 98.6853
RA_OF_ASC_NODE = 39.9829
ARG_OF_PERICENTER = 301.9137
MEAN_ANOMALY   = 57.7475

EPHEMERIS_TYPE = 0
CLASSIFICATION_TYPE = U
NORAD_CAT_ID   = 28059
ELEMENT_SET_NO = 999
REV_AT_EPOCH   = 18329
BSTAR          = .11384E-3
MEAN_MOTION_DOT = .445E-5
MEAN_MOTION_DDOT = 0

CCSDS_OMM_VERS = 2.0
CREATION_DATE  = 
ORIGINATOR     = 

OBJECT_NAME    = CZ-2C R/B
OBJECT_ID      = 2004-012C
CENTER_NAME    = EARTH
REF_FRAME      = TEME
TIME_SYSTEM    = UTC
MEAN_ELEMENT_THEORY = SGP/SGP4

EPOCH          = 2026-02-15T03:20:13.107840
MEAN_MOTION    = 15.61870521
ECCENTRICITY   = .0015301
INCLINATION    = 97.7292
RA_OF_ASC_NODE = 109.3383
ARG_OF_PERICENTER = 37.6191
MEAN_ANOMALY   = 322.6132

EPHEMERIS_TYPE = 0
CLASSIFICATION_TYPE = U
NORAD_CAT_ID   = 28222
ELEMENT_SET_NO = 999
REV_AT_EPOCH   = 20075
BSTAR          = .52081E-3
MEAN_MOTION_DOT = .45502E-3
MEAN_MOTION_DDOT = 0

CCSDS_OMM_VERS = 2.0
CREATION_DATE  = 
ORIGINATOR     = 

OBJECT_NAME    = SL-16 R/B
OBJECT_ID      = 2004-021B
CENTER_NAME    = EARTH
REF_FRAME      = TEME
TIME_SYSTEM    = UTC
MEAN_ELEMENT_THEORY = SGP/SGP4

EPOCH          = 2026-02-15T00:59:14.760384
MEAN_MOTION    = 14.14593362
ECCENTRICITY   = .0003171
INCLINATION    = 70.9989
RA_OF_ASC_NODE = 280.0243
ARG_OF_PERICENTER = 65.2605
MEAN_ANOMALY   = 294.8847

EPHEMERIS_TYPE = 0
CLASSIFICATION_TYPE = U
NORAD_CAT_ID   = 28353
ELEMENT_SET_NO = 999
REV_AT_EPOCH   = 11963
BSTAR          = .19699E-3
MEAN_MOTION_DOT = .331E-5
MEAN_MOTION_DDOT = 0

CCSDS_OMM_VERS = 2.0
CREATION_DATE  = 
ORIGINATOR     = 

OBJECT_NAME    = CZ-4B R/B
OBJECT_ID      = 2004-035C
CENTER_NAME    = EARTH
REF_FRAME      = TEME
TIME_SYSTEM    = UTC
MEAN_ELEMENT_THEORY = SGP/SGP4

EPOCH          = 2026-02-15T01:36:11.787840
MEAN_MOTION    = 15.28635351
ECCENTRICITY   = .0033697
INCLINATION    = 97.3538
RA_OF_ASC_NODE = 80.5844
ARG_OF_PERICENTER = 51.3004
MEAN_ANOMALY   = 309.1241

EPHEMERIS_TYPE = 0
CLASSIFICATION_TYPE = U
NORAD_CAT_ID   = 28415
ELEMENT_SET_NO = 999
REV_AT_EPOCH   = 17645
BSTAR          = .23955E-3
MEAN_MOTION_DOT = .6708E-4
MEAN_MOTION_DDOT = 0

CCSDS_OMM_VERS = 2.0
CREATION_DATE  = 
ORIGINATOR     = 

OBJECT_NAME    = CZ-2C R/B
OBJECT_ID      = 2004-046B
CENTER_NAME    = EARTH
REF_FRAME      = TEME
TIME_SYSTEM    = UTC
MEAN_ELEMENT_THEORY = SGP/SGP4

EPOCH          = 2026-02-14T15:02:30.710112
MEAN_MOTION    = 14.26983946
ECCENTRICITY   = .0138474
INCLINATION    = 98.1995
RA_OF_ASC_NODE = 322.0436
ARG_OF_PERICENTER = 222.7441
MEAN_ANOMALY   = 136.2905

EPHEMERIS_TYPE = 0
CLASSIFICATION_TYPE = U
NORAD_CAT_ID   = 28480
ELEMENT_SET_NO = 999
REV_AT_EPOCH   = 10521
BSTAR          = .58798E-4
MEAN_MOTION_DOT = .116E-5
MEAN_MOTION_DDOT = 0

CCSDS_OMM_VERS = 2.0
CREATION_DATE  = 
ORIGINATOR     = 

OBJECT_NAME    = ARIANE 5 R/B
OBJECT_ID      = 2004-049H
CENTER_NAME    = EARTH
REF_FRAME      = TEME
TIME_SYSTEM    = UTC
MEAN_ELEMENT_THEORY = SGP/SGP4

EPOCH          = 2026-02-15T01:32:03.925248
MEAN_MOTION    = 14.85219913
ECCENTRICITY   = .0085349
INCLINATION    = 98.2588
RA_OF_ASC_NODE = 213.6801
ARG_OF_PERICENTER = 64.8297
MEAN_ANOMALY   = 296.1738

EPHEMERIS_TYPE = 0
CLASSIFICATION_TYPE = U
NORAD_CAT_ID   = 28499
ELEMENT_SET_NO = 999
REV_AT_EPOCH   = 14243
BSTAR          = .98217E-4
MEAN_MOTION_DOT = .835E-5
MEAN_MOTION_DDOT = 0

CCSDS_OMM_VERS = 2.0
CREATION_DATE  = 
ORIGINATOR     = 

OBJECT_NAME    = CZ-2D R/B
OBJECT_ID      = 2005-024B
CENTER_NAME    = EARTH
REF_FRAME      = TEME
TIME_SYSTEM    = UTC
MEAN_ELEMENT_THEORY = SGP/SGP4

EPOCH          = 2026-02-14T23:43:12.327168
MEAN_MOTION    = 15.58101695
ECCENTRICITY   = .0007651
INCLINATION    = 97.3612
RA_OF_ASC_NODE = 60.3389
ARG_OF_PERICENTER = 100.7880
MEAN_ANOMALY   = 259.4237

EPHEMERIS_TYPE = 0
CLASSIFICATION_TYPE = U
NORAD_CAT_ID   = 28738
ELEMENT_SET_NO = 999
REV_AT_EPOCH   = 13624
BSTAR          = .42361E-3
MEAN_MOTION_DOT = .3186E-3
MEAN_MOTION_DDOT = 0

